STARLINK-36739          
1 67802U 26032F   26064.25003472 -.00998437  00000+0 -72851-2 0  9993
2 67802  97.2838 250.5698 0001587  85.3906  65.8273 15.75915597  4064
STARLINK-36768          
1 67803U 26032G   26064.25003472  .00028048  00000+0  18845-3 0  9998
2 67803  97.2840 250.5410 0001498  69.6746  11.9379 15.75171052  4067
STARLINK-36792          
1 67804U 26032H   26064.23813118  .00162375  00000+0  10674-2 0  9996
2 67804  97.2838 250.5205 0001439  67.6964 292.4454 15.75223237  4087
STARLINK-36782          
1 67805U 26032J   26064.28347814  .00327575  00000+0  16384-2 0  9996
2 67805  97.2824 250.6121 0001528  52.7430 307.3978 15.80937231  4093
STARLINK-36389          
1 67806U 26032K   26064.25003472  .00028212  00000+0  18955-3 0  9996
2 67806  97.2834 250.5618 0001492  85.2115  46.3888 15.75170550  4060
STARLINK-36382          
1 67807U 26032L   26064.25003472  .00041014  00000+0  27478-3 0  9992
2 67807  97.2835 250.5657 0001756  97.3199  46.2835 15.75167481  4008
STARLINK-36811          
1 67808U 26032M   26064.28020869  .00335462  00000+0  16896-2 0  9999
2 67808  97.2822 250.6159 0001543   5.0631 355.0652 15.80764410  4092
STARLINK-36795          
1 67809U 26032N   26064.23177522  .00195870  00000+0  12813-2 0  9996
2 67809  97.2834 250.5284 0001318  61.5281 298.6117 15.75241895  4080
STARLINK-36807          
1 67810U 26032P   26064.25003472 -.01525787  00000+0 -11021-1 0  9998
2 67810  97.2837 250.5857 0002177  78.0959 114.7290 15.76429314  4063
STARLINK-36733          
1 67811U 26032Q   26064.27686919  .00202837  00000+0  10322-2 0  9993
2 67811  97.2823 250.6192 0001349  54.1072 306.0322 15.80881819  4095
STARLINK-36377          
1 67812U 26032R   26064.27369715  .00186928  00000+0  95341-3 0  9993
2 67812  97.2828 250.6241 0001368  40.1682 319.9687 15.80872403  4095
STARLINK-36732          
1 67813U 26032S   26064.27466884  .00174351  00000+0  89102-3 0  9994
2 67813  97.2826 250.6214 0001445  81.2842 278.8590 15.80862182  4093
